NORAD_CAT_ID,OBJECT_NAME,OBJECT_TYPE,EPOCH,MEAN_MOTION,ECCENTRICITY,INCLINATION,RA_OF_ASC_NODE,ARG_OF_PERICENTER,MEAN_ANOMALY,BSTAR,MEAN_MOTION_DOT,MEAN_MOTION_DDOT,TLE_LINE0,TLE_LINE1,TLE_LINE2,SEMIMAJOR_AXIS,PERIOD,APOGEE,PERIGEE,DECAYED
53969.0,STARLINK-4468,PAYLOAD,2024-04-28 22:39:12,15.08839532,0.0001286,53.2174,35.6124,78.9075,281.2061,0.00019525,2.821e-05,0.0,0 STARLINK-4468,1 53969U 22125F   24119.94389931  .00002821  00000-0  19525-3 0  9995,2 53969  53.2174  35.6124 0001286  78.9075 281.2061 15.08839532 86705,6917.882,95.438,540.636,538.857,0.0
53969.0,STARLINK-4468,PAYLOAD,2024-04-29 03:25:22,15.08849119,0.0001282,53.2176,34.7205,82.1138,278.0,0.00025368,3.753e-05,0.0,0 STARLINK-4468,1 53969U 22125F   24120.14261587  .00003753  00000-0  25368-3 0  9992,2 53969  53.2176  34.7205 0001282  82.1138 278.0000 15.08849119 86800,6917.853,95.437,540.604,538.831,0.0
53969.0,STARLINK-4468,PAYLOAD,2024-04-29 11:22:17,15.08838656,0.0001418,53.2178,33.2343,79.5263,280.5889,0.00028265,4.213e-05,0.0,0 STARLINK-4468,1 53969U 22125F   24120.47381912  .00004213  00000-0  28265-3 0  9994,2 53969  53.2178  33.2343 0001418  79.5263 280.5889 15.08838656 86851,6917.884,95.438,540.73,538.769,0.0
53969.0,STARLINK-4468,PAYLOAD,2024-04-29 22:30:00,15.08840788,0.0001833,53.2174,31.1522,79.3271,280.7927,0.00013702,1.893e-05,0.0,0 STARLINK-4468,1 53969U 22125F   24120.93750199  .00001893  00000-0  13702-3 0  9993,2 53969  53.2174  31.1522 0001833  79.3271 280.7927 15.08840788 86855,6917.878,95.438,541.011,538.475,0.0
53969.0,STARLINK-4468,PAYLOAD,2024-04-30 11:13:05,15.08845554,0.0001505,53.2176,28.7766,76.4823,283.6337,0.0002176,3.177e-05,0.0,0 STARLINK-4468,1 53969U 22125F   24121.46741968  .00003177  00000-0  21760-3 0  9996,2 53969  53.2176  28.7766 0001505  76.4823 283.6337 15.08845554 86938,6917.863,95.437,540.77,538.687,0.0
53969.0,STARLINK-4468,PAYLOAD,2024-04-30 22:20:46,15.08846924,0.0001526,53.2182,26.6932,81.299,278.8175,0.0001758,2.511e-05,0.0,0 STARLINK-4468,1 53969U 22125F   24121.93109827  .00002511  00000-0  17580-3 0  9996,2 53969  53.2182  26.6932 0001526  81.2990 278.8175 15.08846924 87006,6917.859,95.437,540.78,538.669,0.0
53969.0,STARLINK-4468,PAYLOAD,2024-05-01 03:06:55,15.08855368,0.0001377,53.2176,25.7991,92.86,267.255,0.00029444,4.403e-05,0.0,0 STARLINK-4468,1 53969U 22125F   24122.12981333  .00004403  00000-0  29444-3 0  9992,2 53969  53.2176  25.7991 0001377  92.8600 267.2550 15.08855368 87106,6917.833,95.437,540.651,538.746,0.0
53969.0,STARLINK-4468,PAYLOAD,2024-05-01 11:03:51,15.08850906,0.0001308,53.2167,24.3134,88.7718,271.3424,0.00022937,3.365e-05,0.0,0 STARLINK-4468,1 53969U 22125F   24122.46101404  .00003365  00000-0  22937-3 0  9998,2 53969  53.2167  24.3134 0001308  88.7718 271.3424 15.08850906 87084,6917.847,95.437,540.617,538.807,0.0
53969.0,STARLINK-4468,PAYLOAD,2024-05-02 02:57:42,15.08855592,0.0001517,53.2188,21.3396,82.5748,277.5416,0.00022333,3.27e-05,0.0,0 STARLINK-4468,1 53969U 22125F   24123.12340944  .00003270  00000-0  22333-3 0  9991,2 53969  53.2188  21.3396 0001517  82.5748 277.5416 15.08855592 87187,6917.833,95.437,540.747,538.648,0.0
53969.0,STARLINK-4468,PAYLOAD,2024-05-02 20:26:57,15.08844337,0.0001426,53.2182,18.0674,102.0453,258.0699,5.3816e-05,5.69e-06,0.0,0 STARLINK-4468,1 53969U 22125F   24123.85205245  .00000569  00000-0  53816-4 0  9994,2 53969  53.2182  18.0674 0001426 102.0453 258.0699 15.08844337 87365,6917.867,95.437,540.719,538.746,0.0
53969.0,STARLINK-4468,PAYLOAD,2024-05-03 02:48:29,15.08851124,0.0001367,53.2181,16.878,89.7555,270.3594,0.00017516,2.502e-05,0.0,0 STARLINK-4468,1 53969U 22125F   24124.11700946  .00002502  00000-0  17516-3 0  9997,2 53969  53.2181  16.8780 0001367  89.7555 270.3594 15.08851124 87336,6917.846,95.437,540.657,538.766,0.0
53969.0,STARLINK-4468,PAYLOAD,2024-05-03 21:53:07,15.08842638,0.0001433,53.2178,13.309,89.622,270.4936,6.5185e-05,7.5e-06,0.0,0 STARLINK-4468,1 53969U 22125F   24124.91189156  .00000750  00000-0  65185-4 0  9998,2 53969  53.2178  13.3090 0001433  89.6220 270.4936 15.08842638 87454,6917.872,95.437,540.729,538.746,0.0
53969.0,STARLINK-4468,PAYLOAD,2024-05-03 23:28:30,15.08844975,0.0001379,53.2181,13.0137,78.0881,282.0265,0.00012817,1.753e-05,0.0,0 STARLINK-4468,1 53969U 22125F   24124.97813025  .00001753  00000-0  12817-3 0  9990,2 53969  53.2181  13.0137 0001379  78.0881 282.0265 15.08844975 87530,6917.865,95.437,540.684,538.776,0.0
53969.0,STARLINK-4468,PAYLOAD,2024-05-04 09:00:49,15.0883596,0.0001325,53.2172,11.2302,76.7675,283.3465,-3.4348e-05,-8.34e-06,0.0,0 STARLINK-4468,1 53969U 22125F   24125.37557369 -.00000834  00000-0 -34348-4 0  9996,2 53969  53.2172  11.2302 0001325  76.7675 283.3465 15.08835960 87597,6917.893,95.438,540.674,538.841,0.0
53969.0,STARLINK-4468,PAYLOAD,2024-05-04 23:19:18,15.08831921,0.000135,53.219,8.557,87.672,272.4427,1.8902e-05,1.3e-07,0.0,0 STARLINK-4468,1 53969U 22125F   24125.97174108  .00000013  00000-0  18902-4 0  9993,2 53969  53.2190   8.5570 0001350  87.6720 272.4427 15.08831921 87683,6917.905,95.438,540.704,538.836,0.0
53969.0,STARLINK-4468,PAYLOAD,2024-05-05 15:13:09,15.08838292,0.0001394,53.2191,5.5827,95.471,264.6441,0.00014802,2.068e-05,0.0,0 STARLINK-4468,1 53969U 22125F   24126.63414050  .00002068  00000-0  14802-3 0  9996,2 53969  53.2191   5.5827 0001394  95.4710 264.6441 15.08838292 87711,6917.886,95.438,540.715,538.786,0.0
53969.0,STARLINK-4468,PAYLOAD,2024-05-05 21:34:42,15.08841274,0.0001442,53.2199,4.3936,91.1207,268.9951,0.00011848,1.598e-05,0.0,0 STARLINK-4468,1 53969U 22125F   24126.89910036  .00001598  00000-0  11848-3 0  9993,2 53969  53.2199   4.3936 0001442  91.1207 268.9951 15.08841274 87756,6917.876,95.437,540.739,538.744,0.0
53969.0,STARLINK-4468,PAYLOAD,2024-05-06 00:45:28,15.08846385,0.0001401,53.219,3.798,85.983,274.1322,0.00019551,2.825e-05,0.0,0 STARLINK-4468,1 53969U 22125F   24127.03157822  .00002825  00000-0  19551-3 0  9999,2 53969  53.2190   3.7980 0001401  85.9830 274.1322 15.08846385 87846,6917.861,95.437,540.695,538.757,0.0
53969.0,STARLINK-4468,PAYLOAD,2024-05-06 08:42:24,15.08846548,0.0001322,53.2188,2.3107,80.1717,279.9425,0.00023959,3.528e-05,0.0,0 STARLINK-4468,1 53969U 22125F   24127.36277902  .00003528  00000-0  23959-3 0  9995,2 53969  53.2188   2.3107 0001322  80.1717 279.9425 15.08846548 87828,6917.86,95.437,540.64,538.811,0.0
53969.0,STARLINK-4468,PAYLOAD,2024-05-06 19:50:06,15.08833461,0.0001361,53.2184,0.2291,81.1186,278.996,8.3984e-05,1.049e-05,0.0,0 STARLINK-4468,1 53969U 22125F   24127.82646606  .00001049  00000-0  83984-4 0  9998,2 53969  53.2184   0.2291 0001361  81.1186 278.9960 15.08833461 87967,6917.9,95.438,540.707,538.824,0.0
53969.0,STARLINK-4468,PAYLOAD,2024-05-06 21:25:29,15.08836073,0.0001622,53.219,359.9321,87.5705,272.5473,0.00010602,1.4e-05,0.0,0 STARLINK-4468,1 53969U 22125F   24127.89270641  .00001400  00000-0  10602-3 0  9994,2 53969  53.2190 359.9321 0001622  87.5705 272.5473 15.08836073 87904,6917.892,95.438,540.879,538.635,0.0
53969.0,STARLINK-4468,PAYLOAD,2024-05-07 08:33:11,15.08840455,0.0001551,53.2196,357.8515,86.2614,273.8556,0.00013816,1.912e-05,0.0,0 STARLINK-4468,1 53969U 22125F   24128.35638570  .00001912  00000-0  13816-3 0  9993,2 53969  53.2196 357.8515 0001551  86.2614 273.8556 15.08840455 87970,6917.879,95.438,540.817,538.671,0.0
53969.0,STARLINK-4468,PAYLOAD,2024-05-07 21:16:16,15.08838833,0.000157,53.219,355.4729,75.9315,284.1852,7.4657e-05,9e-06,0.0,0 STARLINK-4468,1 53969U 22125F   24128.88630776  .00000900  00000-0  74657-4 0  9998,2 53969  53.2190 355.4729 0001570  75.9315 284.1852 15.08838833 88050,6917.884,95.438,540.835,538.663,0.0
53969.0,STARLINK-4468,PAYLOAD,2024-05-08 00:27:02,15.08849968,0.0001203,53.2172,354.8753,95.1664,264.9465,0.00020919,3.044e-05,0.0,0 STARLINK-4468,1 53969U 22125F   24129.01877979  .00003044  00000-0  20919-3 0  9995,2 53969  53.2172 354.8753 0001203  95.1664 264.9465 15.08849968 88141,6917.85,95.437,540.547,538.883,0.0
53969.0,STARLINK-4468,PAYLOAD,2024-05-08 08:23:58,15.0884198,0.0001247,53.2167,353.3878,87.9277,272.1858,0.00011053,1.472e-05,0.0,0 STARLINK-4468,1 53969U 22125F   24129.34998487  .00001472  00000-0  11053-3 0  9991,2 53969  53.2167 353.3878 0001247  87.9277 272.1858 15.08841980 88192,6917.874,95.437,540.602,538.877,0.0
53969.0,STARLINK-4468,PAYLOAD,2024-05-08 21:07:03,15.08848521,0.0001229,53.2169,351.0095,89.668,270.4453,0.00016561,2.349e-05,0.0,0 STARLINK-4468,1 53969U 22125F   24129.87990187  .00002349  00000-0  16561-3 0  9991,2 53969  53.2169 351.0095 0001229  89.6680 270.4453 15.08848521 88209,6917.854,95.437,540.57,538.869,0.0
53969.0,STARLINK-4468,PAYLOAD,2024-05-09 00:17:49,15.08853861,0.0001312,53.2178,350.4127,90.9191,269.1951,0.0002461,3.632e-05,0.0,0 STARLINK-4468,1 53969U 22125F   24130.01237876  .00003632  00000-0  24610-3 0  9998,2 53969  53.2178 350.4127 0001312  90.9191 269.1951 15.08853861 88293,6917.838,95.437,540.611,538.795,0.0
53969.0,STARLINK-4468,PAYLOAD,2024-05-09 08:14:45,15.08846083,0.0001163,53.2182,348.9286,92.3162,267.7964,0.00018101,2.595e-05,0.0,0 STARLINK-4468,1 53969U 22125F   24130.34358217  .00002595  00000-0  18101-3 0  9992,2 53969  53.2182 348.9286 0001163  92.3162 267.7964 15.08846083 88346,6917.862,95.437,540.531,538.922,0.0
53969.0,STARLINK-4468,PAYLOAD,2024-05-09 20:57:50,15.08856721,0.0001052,53.2174,346.5491,102.7143,257.3967,0.00022316,3.267e-05,0.0,0 STARLINK-4468,1 53969U 22125F   24130.87349719  .00003267  00000-0  22316-3 0  9997,2 53969  53.2174 346.5491 0001052 102.7143 257.3967 15.08856721 88350,6917.829,95.436,540.422,538.967,0.0
53969.0,STARLINK-4468,PAYLOAD,2024-05-10 00:08:36,15.08858122,0.0001076,53.2174,345.9545,105.1285,254.9826,0.00024062,3.546e-05,0.0,0 STARLINK-4468,1 53969U 22125F   24131.00597560  .00003546  00000-0  24062-3 0  9992,2 53969  53.2174 345.9545 0001076 105.1285 254.9826 15.08858122 88447,6917.825,95.436,540.434,538.946,0.0
